STARLINK-2488
1 28145C 21027BF  21325.14911598 -.00000704  00000-0 -47146-4 0  3257
2 28145  53.0547 357.5526 0001407  65.4061 317.4248 15.06398620    15
